ONEWEB-0094             
1 45450U 20020AC  25188.91073219  .00000039  00000+0  68337-4 0  9990
2 45450  87.9057  74.3712 0001796  83.1088 277.0248 13.17648536260979
ONEWEB-0087             
1 45451U 20020AD  25188.78023975  .00000359  00000+0  97687-3 0  9994
2 45451  87.8831  89.6564 0001844  85.3770 274.7568 13.11418463257444
ONEWEB-0082             
1 45452U 20020AE  25188.77698607  .00000240  00000+0  64147-3 0  9998
2 45452  87.8836  89.6802 0002018  81.6145 278.5211 13.11418030257531
ONEWEB-0050             
1 45453U 20020AF  25188.78931631  .00002052  00000+0  20645-3 0  9995
2 45453  87.9992 290.1358 0004932 112.2339 247.9413 14.90748356289101
ONEWEB-0034             
1 45454U 20020AG  25189.10336541  .00000568  00000+0  15674-2 0  9997
2 45454  87.8841  89.6347 0001930  79.5838 280.5507 13.11415143257500
ONEWEB-0060             
1 45455U 20020AH  25189.14674418 -.00001873  00000+0 -53226-2 0  9997
2 45455  87.8840  89.6539 0000699  44.5365 315.5819 13.11405566257469
ONEWEB-0086             
1 45456U 20020AJ  25188.97703699 -.00000451  00000+0 -13095-2 0  9993
2 45456  87.8834  89.6584 0001865  90.0212 270.1129 13.11416761257498
ONEWEB-0088             
1 45457U 20020AK  25189.18390095  .00000397  00000+0  10855-2 0  9998
2 45457  87.8828  89.5657 0001817  81.5373 278.5960 13.11415782257466
